H1 CPF  2  DGF 2024 03 15 11 075 01 lares2     NONE      
H2  2208001 5988    53105 2024 03 15 00 00 00 2024 03 22 00 00 00    60 1 1  0 0 0 1
H5  0.1740
H9
10 0 60390      0.000000  0      -1339432.845      -6793176.172     -10133339.118
10 0 60390     60.000000  0      -1122293.363      -6604664.196     -10283499.268
10 0 60390    120.000000  0       -902642.170      -6413069.215     -10425679.808
10 0 60390    180.000000  0       -680619.171      -6218557.956     -10559771.204
10 0 60390    240.000000  0       -456367.496      -6021298.071     -10685670.195
10 0 60390    300.000000  0       -230033.395      -5821457.979     -10803279.871
10 0 60390    360.000000  0         -1766.136      -5619206.717     -10912509.746
10 0 60390    420.000000  0        228282.102      -5414713.783     -11013275.824
10 0 60390    480.000000  0        459956.339      -5208148.985     -11105500.658
10 0 60390    540.000000  0        693098.909      -4999682.290     -11189113.411
10 0 60390    600.000000  0        927549.575      -4789483.669     -11264049.902
10 0 60390    660.000000  0       1163145.650      -4577722.954     -11330252.659
10 0 60390    720.000000  0       1399722.119      -4364569.685     -11387670.955
10 0 60390    780.000000  0       1637111.768      -4150192.964     -11436260.848
10 0 60390    840.000000  0       1875145.308      -3934761.315     -11475985.211
10 0 60390    900.000000  0       2113651.509      -3718442.532     -11506813.760
10 0 60390    960.000000  0       2352457.337      -3501403.544     -11528723.071
10 0 60390   1020.000000  0       2591388.083      -3283810.274     -11541696.604
10 0 60390   1080.000000  0       2830267.510      -3065827.501     -11545724.705
10 0 60390   1140.000000  0       3068917.989      -2847618.725     -11540804.620
10 0 60390   1200.000000  0       3307160.647      -2629346.033     -11526940.490
10 0 60390   1260.000000  0       3544815.507      -2411169.970     -11504143.352
10 0 60390   1320.000000  0       3781701.641      -2193249.409     -11472431.124
10 0 60390   1380.000000  0       4017637.315      -1975741.428     -11431828.598
10 0 60390   1440.000000  0       4252440.145      -1758801.185     -11382367.412
10 0 60390   1500.000000  0       4485927.244      -1542581.800     -11324086.033
10 0 60390   1560.000000  0       4717915.381      -1327234.234     -11257029.725
10 0 60390   1620.000000  0       4948221.134      -1112907.179     -11181250.511
10 0 60390   1680.000000  0       5176661.046       -899746.946     -11096807.140
10 0 60390   1740.000000  0       5403051.787       -687897.356     -11003765.038
10 0 60390   1800.000000  0       5627210.306       -477499.635     -10902196.258
10 0 60390   1860.000000  0       5848953.999       -268692.313     -10792179.430
10 0 60390   1920.000000  0       6068100.860        -61611.126     -10673799.698
10 0 60390   1980.000000  0       6284469.650        143611.078     -10547148.656
10 0 60390   2040.000000  0       6497880.052        346844.431     -10412324.282
10 0 60390   2100.000000  0       6708152.834        547962.133     -10269430.861
10 0 60390   2160.000000  0       6915110.015        746840.534     -10118578.910
10 0 60390   2220.000000  0       7118575.018        943359.218      -9959885.088
10 0 60390   2280.000000  0       7318372.838       1137401.075      -9793472.119
10 0 60390   2340.000000  0       7514330.199       1328852.377      -9619468.690
10 0 60390   2400.000000  0       7706275.718       1517602.846      -9438009.357
10 0 60390   2460.000000  0       7894040.058       1703545.719      -9249234.448
10 0 60390   2520.000000  0       8077456.096       1886577.808      -9053289.949
10 0 60390   2580.000000  0       8256359.072       2066599.560      -8850327.401
10 0 60390   2640.000000  0       8430586.750       2243515.107      -8640503.782
10 0 60390   2700.000000  0       8599979.574       2417232.318      -8423981.389
10 0 60390   2760.000000  0       8764380.821       2587662.842      -8200927.715
10 0 60390   2820.000000  0       8923636.752       2754722.150      -7971515.323
10 0 60390   2880.000000  0       9077596.764       2918329.571      -7735921.714
10 0 60390   2940.000000  0       9226113.539       3078408.327      -7494329.191
10 0 60390   3000.000000  0       9369043.190       3234885.561      -7246924.726
10 0 60390   3060.000000  0       9506245.406       3387692.359      -6993899.810
10 0 60390   3120.000000  0       9637583.593       3536763.774      -6735450.313
10 0 60390   3180.000000  0       9762925.015       3682038.841      -6471776.331
10 0 60390   3240.000000  0       9882140.929       3823460.591      -6203082.037
10 0 60390   3300.000000  0       9995106.723       3960976.055      -5929575.520
10 0 60390   3360.000000  0      10101702.042       4094536.271      -5651468.629
10 0 60390   3420.000000  0      10201810.918       4224096.287      -5368976.810
10 0 60390   3480.000000  0      10295321.898       4349615.150      -5082318.942
10 0 60390   3540.000000  0      10382128.159       4471055.903      -4791717.164
10 0 60390   3600.000000  0      10462127.633       4588385.572      -4497396.711
10 0 60390   3660.000000  0      10535223.114       4701575.151      -4199585.735
10 0 60390   3720.000000  0      10601322.375       4810599.576      -3898515.131
10 0 60390   3780.000000  0      10660338.270       4915437.711      -3594418.359
10 0 60390   3840.000000  0      10712188.837       5016072.313      -3287531.264
10 0 60390   3900.000000  0      10756797.396       5112490.000      -2978091.892
10 0 60390   3960.000000  0      10794092.648       5204681.222      -2666340.309
10 0 60390   4020.000000  0      10824008.755       5292640.217      -2352518.410
10 0 60390   4080.000000  0      10846485.433       5376364.969      -2036869.735
10 0 60390   4140.000000  0      10861468.029       5455857.162      -1719639.280
10 0 60390   4200.000000  0      10868907.597       5531122.134      -1401073.303
10 0 60390   4260.000000  0      10868760.967       5602168.816      -1081419.137
10 0 60390   4320.000000  0      10860990.816       5669009.685       -760924.996
10 0 60390   4380.000000  0      10845565.722       5731660.698       -439839.779
10 0 60390   4440.000000  0      10822460.224       5790141.229       -118412.880
10 0 60390   4500.000000  0      10791654.874       5844474.007        203106.009
10 0 60390   4560.000000  0      10753136.276       5894685.045        524467.093
10 0 60390   4620.000000  0      10706897.134       5940803.568        845420.667
10 0 60390   4680.000000  0      10652936.279       5982861.937       1165717.313
10 0 60390   4740.000000  0      10591258.705       6020895.575       1485108.094
10 0 60390   4800.000000  0      10521875.588       6054942.883       1803344.748
10 0 60390   4860.000000  0      10444804.308       6085045.163       2120179.885
10 0 60390   4920.000000  0      10360068.456       6111246.525       2435367.176
10 0 60390   4980.000000  0      10267697.849       6133593.808       2748661.551
10 0 60390   5040.000000  0      10167728.526       6152136.486       3059819.386
10 0 60390   5100.000000  0      10060202.744       6166926.578       3368598.697
10 0 60390   5160.000000  0       9945168.973       6178018.555       3674759.327
10 0 60390   5220.000000  0       9822681.876       6185469.243       3978063.135
10 0 60390   5280.000000  0       9692802.288       6189337.728       4278274.185
10 0 60390   5340.000000  0       9555597.194       6189685.259       4575158.926
10 0 60390   5400.000000  0       9411139.693       6186575.145       4868486.378
10 0 60390   5460.000000  0       9259508.960       6180072.654       5158028.311
10 0 60390   5520.000000  0       9100790.205       6170244.914       5443559.425
10 0 60390   5580.000000  0       8935074.624       6157160.807       5724857.527
10 0 60390   5640.000000  0       8762459.342       6140890.865       6001703.701
10 0 60390   5700.000000  0       8583047.355       6121507.165       6273882.484
10 0 60390   5760.000000  0       8396947.466       6099083.224       6541182.030
10 0 60390   5820.000000  0       8204274.211       6073693.892       6803394.279
10 0 60390   5880.000000  0       8005147.787       6045415.244       7060315.119
10 0 60390   5940.000000  0       7799693.966       6014324.478       7311744.542
10 0 60390   6000.000000  0       7588044.016       5980499.801       7557486.805
10 0 60390   6060.000000  0       7370334.600       5944020.326       7797350.579
10 0 60390   6120.000000  0       7146707.688       5904965.966       8031149.101
10 0 60390   6180.000000  0       6917310.450       5863417.323       8258700.317
10 0 60390   6240.000000  0       6682295.154       5819455.586       8479827.026
10 0 60390   6300.000000  0       6441819.050       5773162.422       8694357.017
10 0 60390   6360.000000  0       6196044.260       5724619.872       8902123.204
10 0 60390   6420.000000  0       5945137.651       5673910.248       9102963.755
10 0 60390   6480.000000  0       5689270.716       5621116.027       9296722.219
10 0 60390   6540.000000  0       5428619.443       5566319.747       9483247.645
10 0 60390   6600.000000  0       5163364.181       5509603.911       9662394.705
10 0 60390   6660.000000  0       4893689.501       5451050.882       9834023.800
10 0 60390   6720.000000  0       4619784.058       5390742.783       9998001.176
10 0 60390   6780.000000  0       4341840.443       5328761.406      10154199.021
10 0 60390   6840.000000  0       4060055.034       5265188.108      10302495.569
10 0 60390   6900.000000  0       3774627.844       5200103.724      10442775.193
10 0 60390   6960.000000  0       3485762.365       5133588.467      10574928.494
10 0 60390   7020.000000  0       3193665.404       5065721.846      10698852.390
10 0 60390   7080.000000  0       2898546.926       4996582.569      10814450.191
10 0 60390   7140.000000  0       2600619.886       4926248.461      10921631.677
99